IRIDIUM 63              
1 25286U 98021B   25303.65457012  .00000612  00000+0  20139-3 0  9992
2 25286  86.4025  25.2837 0002089 100.1909 259.9524 14.36681815443297
IRIDIUM 69              
1 25319U 98026A   25303.66727073  .00000877  00000+0  26627-3 0  9993
2 25319  86.4007  38.1366 0000887 358.6802   1.4395 14.41140148442571
IRIDIUM 71              
1 25320U 98026B   25303.65755456  .00000480  00000+0  14254-3 0  9993
2 25320  86.4011  32.8174 0002912  47.3546 312.7898 14.41276736443103
IRIDIUM 73              
1 25344U 98032C   25303.49876623  .00000773  00000+0  18688-3 0  9998
2 25344  86.4439 349.3654 0001633  99.7543 260.3847 14.51905362450193
IRIDIUM 82              
1 25467U 98051A   25303.75181059  .00069844  00000+0  14941-2 0  9997
2 25467  86.3644  42.6584 0070039 139.1383 221.5154 15.41900965444768
